[{"OBJECT_NAME":"STARLINK-2637","OBJECT_ID":"2021-038D","EPOCH":"2026-03-09T01:09:51.248448","MEAN_MOTION":15.29352936,"ECCENTRICITY":0.00012819,"INCLINATION":53.1538,"RA_OF_ASC_NODE":1.1174,"ARG_OF_PERICENTER":68.0058,"MEAN_ANOMALY":292.1078,"EPHEMERIS_TYPE":0,"CLASSIFICATION_TYPE":"U","NORAD_CAT_ID":48356,"ELEMENT_SET_NO":999,"REV_AT_EPOCH":26698,"BSTAR":0.00030200777,"MEAN_MOTION_DOT":8.368e-5,"MEAN_MOTION_DDOT":0},{"OBJECT_NAME":"TOMORROW-S1","OBJECT_ID":"2024-149M","EPOCH":"2026-03-09T17:23:34.533600","MEAN_MOTION":15.31198363,"ECCENTRICITY":0.00018188,"INCLINATION":97.3791,"RA_OF_ASC_NODE":149.6044,"ARG_OF_PERICENTER":207.204,"MEAN_ANOMALY":152.9106,"EPHEMERIS_TYPE":0,"CLASSIFICATION_TYPE":"U","NORAD_CAT_ID":60479,"ELEMENT_SET_NO":999,"REV_AT_EPOCH":8686,"BSTAR":0.0002885603,"MEAN_MOTION_DOT":8.62e-5,"MEAN_MOTION_DDOT":0}]
